NORAD_CAT_ID,OBJECT_NAME,OBJECT_TYPE,EPOCH,MEAN_MOTION,ECCENTRICITY,INCLINATION,RA_OF_ASC_NODE,ARG_OF_PERICENTER,MEAN_ANOMALY,BSTAR,MEAN_MOTION_DOT,MEAN_MOTION_DDOT,TLE_LINE0,TLE_LINE1,TLE_LINE2,SEMIMAJOR_AXIS,PERIOD,APOGEE,PERIGEE,DECAYED
54790.0,STARLINK-5445,PAYLOAD,2023-05-03 17:37:37,15.08838026,0.0001327,53.2184,21.9365,83.7212,276.3931,-6.6692e-05,-1.349e-05,0.0,0 STARLINK-5445,1 54790U 22175AJ  23123.73445776 -.00001349  00000-0 -66692-4 0  9998,2 54790  53.2184  21.9365 0001327  83.7212 276.3931 15.08838026 20826,6917.886,95.438,540.669,538.833,0.0
54790.0,STARLINK-5445,PAYLOAD,2023-05-03 20:48:23,15.08837314,0.0001299,53.2189,21.3416,84.4196,275.6945,-7.4303e-05,-1.47e-05,0.0,0 STARLINK-5445,1 54790U 22175AJ  23123.86693853 -.00001470  00000-0 -74303-4 0  9996,2 54790  53.2189  21.3416 0001299  84.4196 275.6945 15.08837314 23008,6917.889,95.438,540.652,538.855,0.0
54790.0,STARLINK-5445,PAYLOAD,2023-05-04 09:31:28,15.08840858,0.0001266,53.2196,18.9636,85.9909,274.1228,-7.8807e-05,-1.542e-05,0.0,0 STARLINK-5445,1 54790U 22175AJ  23124.39685616 -.00001542  00000-0 -78807-4 0  9996,2 54790  53.2196  18.9636 0001266  85.9909 274.1228 15.08840858 23087,6917.878,95.438,540.619,538.867,0.0
54790.0,STARLINK-5445,PAYLOAD,2023-05-04 20:39:10,15.08839022,0.0001096,53.2188,16.8825,83.1546,276.9571,-5.854e-05,-1.219e-05,0.0,0 STARLINK-5445,1 54790U 22175AJ  23124.86053876 -.00001219  00000-0 -58540-4 0  9998,2 54790  53.2188  16.8825 0001096  83.1546 276.9571 15.08839022 20992,6917.883,95.438,540.507,538.99,0.0
54790.0,STARLINK-5445,PAYLOAD,2023-05-05 03:00:42,15.08843159,0.000104,53.2185,15.6933,87.8314,272.2798,6.5922e-05,7.62e-06,0.0,0 STARLINK-5445,1 54790U 22175AJ  23125.12549093  .00000762  00000-0  65922-4 0  9991,2 54790  53.2185  15.6933 0001040  87.8314 272.2798 15.08843159 21031,6917.871,95.437,540.455,539.016,0.0
54790.0,STARLINK-5445,PAYLOAD,2023-05-05 15:43:48,15.08830146,0.0001062,53.2185,13.3133,94.8421,265.2693,-2.6952e-05,-7.17e-06,0.0,0 STARLINK-5445,1 54790U 22175AJ  23125.65542394 -.00000717  00000-0 -26952-4 0  9998,2 54790  53.2185  13.3133 0001062  94.8421 265.2693 15.08830146 21116,6917.911,95.438,540.51,539.041,0.0
54790.0,STARLINK-5445,PAYLOAD,2023-05-05 20:29:57,15.08831857,0.0001039,53.2186,12.4225,96.5517,263.5594,-1.2614e-05,-4.88e-06,0.0,0 STARLINK-5445,1 54790U 22175AJ  23125.85414288 -.00000488  00000-0 -12614-4 0  9995,2 54790  53.2186  12.4225 0001039  96.5517 263.5594 15.08831857 23302,6917.905,95.438,540.489,539.052,0.0
54790.0,STARLINK-5445,PAYLOAD,2023-05-05 23:40:43,15.08836981,9.86e-05,53.2186,11.8279,100.237,259.8733,3.1912e-05,2.2e-06,0.0,0 STARLINK-5445,1 54790U 22175AJ  23125.98661836  .00000220  00000-0  31912-4 0  9996,2 54790  53.2186  11.8279 0000986 100.2370 259.8733 15.08836981 21162,6917.89,95.438,540.437,539.073,0.0
54790.0,STARLINK-5445,PAYLOAD,2023-05-07 01:06:53,15.08845128,8.76e-05,53.2173,7.0689,112.455,247.6534,1.2573e-05,-8.8e-07,0.0,0 STARLINK-5445,1 54790U 22175AJ  23127.04645401 -.00000088  00000-0  12573-4 0  9990,2 54790  53.2173   7.0689 0000876 112.4550 247.6534 15.08845128 21328,6917.865,95.437,540.336,539.124,0.0
54790.0,STARLINK-5445,PAYLOAD,2023-05-07 21:46:55,15.088326,0.0001349,53.2189,3.2027,113.4188,246.6946,-5.2139e-05,-1.117e-05,0.0,0 STARLINK-5445,1 54790U 22175AJ  23127.90758711 -.00001117  00000-0 -52139-4 0  9991,2 54790  53.2189   3.2027 0001349 113.4188 246.6946 15.08832600 23614,6917.903,95.438,540.701,538.835,0.0
54790.0,STARLINK-5445,PAYLOAD,2023-05-07 23:22:18,15.08835812,9.5e-05,53.2182,2.9064,93.2757,266.8344,-2.2884e-05,-6.52e-06,0.0,0 STARLINK-5445,1 54790U 22175AJ  23127.97382517 -.00000652  00000-0 -22884-4 0  9992,2 54790  53.2182   2.9064 0000950  93.2757 266.8344 15.08835812 21463,6917.893,95.438,540.415,539.101,0.0
54790.0,STARLINK-5445,PAYLOAD,2023-05-08 20:02:18,15.08847455,0.0001029,53.2193,359.0361,88.5056,271.6054,-5.7045e-05,-1.196e-05,0.0,0 STARLINK-5445,1 54790U 22175AJ  23128.83494024 -.00001196  00000-0 -57045-4 0  9996,2 54790  53.2193 359.0361 0001029  88.5056 271.6054 15.08847455 21590,6917.858,95.437,540.434,539.011,0.0
54790.0,STARLINK-5445,PAYLOAD,2023-05-08 21:37:41,15.08846327,0.0001152,53.219,358.7392,79.3652,280.747,-1.1404e-05,-4.69e-06,0.0,0 STARLINK-5445,1 54790U 22175AJ  23128.90117920 -.00000469  00000-0 -11404-4 0  9992,2 54790  53.2190 358.7392 0001152  79.3652 280.7470 15.08846327 23765,6917.861,95.437,540.523,538.929,0.0
54790.0,STARLINK-5445,PAYLOAD,2023-05-08 23:13:04,15.08848346,0.0001086,53.2187,358.4439,92.9406,267.171,1.6872e-05,-1.9e-07,0.0,0 STARLINK-5445,1 54790U 22175AJ  23128.96741613 -.00000019  00000-0  16872-4 0  9994,2 54790  53.2187 358.4439 0001086  92.9406 267.1710 15.08848346 23774,6917.855,95.437,540.471,538.969,0.0
54790.0,STARLINK-5445,PAYLOAD,2023-05-10 00:39:14,15.08846309,0.0001093,53.2197,353.6879,94.499,265.6128,5.0867e-05,5.22e-06,0.0,0 STARLINK-5445,1 54790U 22175AJ  23130.02725539  .00000522  00000-0  50867-4 0  9993,2 54790  53.2197 353.6879 0001093  94.4990 265.6128 15.08846309 23934,6917.861,95.437,540.482,538.97,0.0
54790.0,STARLINK-5445,PAYLOAD,2023-05-10 21:19:16,15.08842553,0.0001061,53.2188,349.82,97.5785,262.5328,-1.1931e-05,-4.78e-06,0.0,0 STARLINK-5445,1 54790U 22175AJ  23130.88837990 -.00000478  00000-0 -11931-4 0  9993,2 54790  53.2188 349.8200 0001061  97.5785 262.5328 15.08842553 21900,6917.873,95.437,540.472,539.004,0.0
54790.0,STARLINK-5445,PAYLOAD,2023-05-11 21:10:03,15.08836605,0.0001094,53.2185,345.3612,91.3465,268.7653,-6.5693e-05,-1.333e-05,0.0,0 STARLINK-5445,1 54790U 22175AJ  23131.88198636 -.00001333  00000-0 -65693-4 0  9996,2 54790  53.2185 345.3612 0001094  91.3465 268.7653 15.08836605 24215,6917.891,95.438,540.513,538.999,0.0
54790.0,STARLINK-5445,PAYLOAD,2023-05-12 21:00:50,15.08838635,0.0001178,53.2187,340.9086,109.1341,250.9778,-3.2028e-05,-7.97e-06,0.0,0 STARLINK-5445,1 54790U 22175AJ  23132.87558816 -.00000797  00000-0 -32028-4 0  9995,2 54790  53.2187 340.9086 0001178 109.1341 250.9778 15.08838635 24369,6917.885,95.438,540.564,538.935,0.0
54790.0,STARLINK-5445,PAYLOAD,2023-05-13 19:16:14,15.08830542,0.0001241,53.2182,336.7422,112.7363,247.376,0.00012296,1.669e-05,0.0,0 STARLINK-5445,1 54790U 22175AJ  23133.80294866  .00001669  00000-0  12296-3 0  9992,2 54790  53.2182 336.7422 0001241 112.7363 247.3760 15.08830542 22342,6917.909,95.438,540.633,538.916,0.0
54790.0,STARLINK-5445,PAYLOAD,2023-05-13 20:51:38,15.08805988,0.0001357,53.2183,336.4431,107.8646,252.2494,0.00047005,7.194e-05,0.0,0 STARLINK-5445,1 54790U 22175AJ  23133.86919025  .00007194  00000-0  47005-3 0  9994,2 54790  53.2183 336.4431 0001357 107.8646 252.2494 15.08805988 24513,6917.984,95.44,540.788,538.911,0.0
54790.0,STARLINK-5445,PAYLOAD,2023-05-14 00:02:23,15.08842608,0.0001133,53.2188,335.8452,94.8255,265.2866,0.00012251,1.663e-05,0.0,0 STARLINK-5445,1 54790U 22175AJ  23134.00166203  .00001663  00000-0  12251-3 0  9993,2 54790  53.2188 335.8452 0001133  94.8255 265.2866 15.08842608 22376,6917.872,95.437,540.521,538.954,0.0
54790.0,STARLINK-5445,PAYLOAD,2023-05-14 06:23:57,15.08830983,0.0001092,53.2187,334.6567,91.2158,268.8959,8.4886e-07,-2.74e-06,0.0,0 STARLINK-5445,1 54790U 22175AJ  23134.26663353 -.00000274  00000-0  84886-6 0  9993,2 54790  53.2187 334.6567 0001092  91.2158 268.8959 15.08830983 22416,6917.908,95.438,540.528,539.018,0.0
54790.0,STARLINK-5445,PAYLOAD,2023-05-14 12:45:29,15.08833065,0.0001138,53.2187,333.4674,89.9933,270.119,-1.7919e-05,-5.73e-06,0.0,0 STARLINK-5445,1 54790U 22175AJ  23134.53159456 -.00000573  00000-0 -17919-4 0  9991,2 54790  53.2187 333.4674 0001138  89.9933 270.1190 15.08833065 24619,6917.902,95.438,540.554,538.979,0.0
54790.0,STARLINK-5445,PAYLOAD,2023-05-14 20:42:24,15.08840045,0.0001113,53.2188,331.982,96.8798,263.2321,1.8163e-05,1e-08,0.0,0 STARLINK-5445,1 54790U 22175AJ  23134.86278902  .00000001  00000-0  18163-4 0  9991,2 54790  53.2188 331.9820 0001113  96.8798 263.2321 15.08840045 22506,6917.88,95.438,540.515,538.975,0.0
54790.0,STARLINK-5445,PAYLOAD,2023-05-15 18:57:49,15.08838633,0.0001128,53.2184,327.8185,89.8354,270.2767,-6.8316e-05,-1.375e-05,0.0,0 STARLINK-5445,1 54790U 22175AJ  23135.79015496 -.00001375  00000-0 -68316-4 0  9993,2 54790  53.2184 327.8185 0001128  89.8354 270.2767 15.08838633 22643,6917.885,95.438,540.53,538.969,0.0
54790.0,STARLINK-5445,PAYLOAD,2023-05-16 12:27:03,15.08837298,0.0001073,53.2173,324.5466,89.1275,270.984,5.6335e-05,6.09e-06,0.0,0 STARLINK-5445,1 54790U 22175AJ  23136.51879102  .00000609  00000-0  56335-4 0  9991,2 54790  53.2173 324.5466 0001073  89.1275 270.9840 15.08837298 24918,6917.889,95.438,540.496,539.011,0.0
54790.0,STARLINK-5445,PAYLOAD,2023-05-16 18:48:36,15.0883289,0.0001025,53.2175,323.357,92.6627,267.4482,0.00015978,2.256e-05,0.0,0 STARLINK-5445,1 54790U 22175AJ  23136.78375078  .00002256  00000-0  15978-3 0  9990,2 54790  53.2175 323.3570 0001025  92.6627 267.4482 15.08832890 24950,6917.902,95.438,540.476,539.058,0.0
54790.0,STARLINK-5445,PAYLOAD,2023-05-17 01:10:07,15.08850076,0.0001105,53.2172,322.1686,81.2469,278.8648,8.9947e-05,1.144e-05,0.0,0 STARLINK-5445,1 54790U 22175AJ  23137.04870088  .00001144  00000-0  89947-4 0  9994,2 54790  53.2172 322.1686 0001105  81.2469 278.8648 15.08850076 22830,6917.85,95.437,540.479,538.95,0.0
54790.0,STARLINK-5445,PAYLOAD,2023-05-17 10:42:27,15.08833985,0.0001162,53.2167,320.3847,80.5834,279.5289,-3.7291e-05,-8.81e-06,0.0,0 STARLINK-5445,1 54790U 22175AJ  23137.44615631 -.00000881  00000-0 -37291-4 0  9993,2 54790  53.2167 320.3847 0001162  80.5834 279.5289 15.08833985 22899,6917.899,95.438,540.568,538.96,0.0
54790.0,STARLINK-5445,PAYLOAD,2023-05-17 18:39:23,15.08839418,0.0001062,53.2177,318.8967,89.3036,270.8078,1.0897e-05,-1.14e-06,0.0,0 STARLINK-5445,1 54790U 22175AJ  23137.77735070 -.00000114  00000-0  10897-4 0  9990,2 54790  53.2177 318.8967 0001062  89.3036 270.8078 15.08839418 22948,6917.882,95.438,540.482,539.012,0.0
